[{"OBJECT_NAME":"STARLINK-3728","OBJECT_ID":"2022-045AG","EPOCH":"2026-03-09T16:05:34.708704","MEAN_MOTION":15.08825995,"ECCENTRICITY":0.00012833,"INCLINATION":53.2163,"RA_OF_ASC_NODE":199.2039,"ARG_OF_PERICENTER":91.4703,"MEAN_ANOMALY":268.6436,"EPHEMERIS_TYPE":0,"CLASSIFICATION_TYPE":"U","NORAD_CAT_ID":52361,"ELEMENT_SET_NO":999,"REV_AT_EPOCH":21578,"BSTAR":-0.00020148327,"MEAN_MOTION_DOT":-3.492e-5,"MEAN_MOTION_DDOT":0},{"OBJECT_NAME":"COSMOS 2251 DEB","OBJECT_ID":"1993-036EU","EPOCH":"2026-03-09T14:44:02.306976","MEAN_MOTION":15.10275873,"ECCENTRICITY":0.0002082,"INCLINATION":74.0027,"RA_OF_ASC_NODE":262.4484,"ARG_OF_PERICENTER":258.1067,"MEAN_ANOMALY":101.9891,"EPHEMERIS_TYPE":0,"CLASSIFICATION_TYPE":"U","NORAD_CAT_ID":33939,"ELEMENT_SET_NO":999,"REV_AT_EPOCH":90059,"BSTAR":0.0040153,"MEAN_MOTION_DOT":0.00066338,"MEAN_MOTION_DDOT":0}]
